{
  "type": "FeatureCollection",
  "features": [
    {
      "type": "Feature",
      "properties": {
        "norad_id": 41827,
        "name": "FENGYUN 1C DEB",
        "group": "fengyun-1c-debris",
        "lat": 51.402337766118464,
        "lon": -115.34823618840481,
        "alt_km": 804.655404653995,
        "timestamp": "2025-12-10T07:43:55.069450+00:00",
        "meta_object_name": "FENGYUN 1C DEB",
        "meta_object_id": "1999-025EYE",
        "meta_epoch": "2025-12-09T10:54:40.001760",
        "meta_mean_motion": 14.25232201,
        "meta_eccentricity": 0.00581144,
        "meta_inclination": 98.7426,
        "meta_ra_of_asc_node": 52.6724,
        "meta_arg_of_pericenter": 222.9596,
        "meta_mean_anomaly": 136.7038,
        "meta_ephemeris_type": 0,
        "meta_classification_type": "U",
        "meta_norad_cat_id": 41827,
        "meta_element_set_no": 999,
        "meta_rev_at_epoch": 47284,
        "meta_bstar": 0.0024797354,
        "meta_mean_motion_dot": 5.893e-05,
        "meta_mean_motion_ddot": 0,
        "tle_line1": "1 41827U 99025EYE 25343.45462965  .00005893  00000+0  24797-2 0  9990",
        "tle_line2": "2 41827  98.7426  52.6724 0058114 222.9596 136.7038 14.25232201472845"
      },
      "geometry": {
        "type": "Point",
        "coordinates": [
          -115.34823618840481,
          51.402337766118464
        ]
      }
    },
    {
      "type": "Feature",
      "properties": {
        "norad_id": 41828,
        "name": "FENGYUN 1C DEB",
        "group": "fengyun-1c-debris",
        "lat": 25.978018361128147,
        "lon": -63.389587907016335,
        "alt_km": 695.2776322551008,
        "timestamp": "2025-12-10T07:43:55.069460+00:00",
        "meta_object_name": "FENGYUN 1C DEB",
        "meta_object_id": "1999-025EYF",
        "meta_epoch": "2025-12-09T19:26:41.781120",
        "meta_mean_motion": 14.51514369,
        "meta_eccentricity": 0.0039269,
        "meta_inclination": 98.9221,
        "meta_ra_of_asc_node": 111.6773,
        "meta_arg_of_pericenter": 184.1327,
        "meta_mean_anomaly": 175.9547,
        "meta_ephemeris_type": 0,
        "meta_classification_type": "U",
        "meta_norad_cat_id": 41828,
        "meta_element_set_no": 999,
        "meta_rev_at_epoch": 47421,
        "meta_bstar": 0.0080466,
        "meta_mean_motion_dot": 0.00032599,
        "meta_mean_motion_ddot": 0,
        "tle_line1": "1 41828U 99025EYF 25343.81020580  .00032599  00000+0  80466-2 0  9992",
        "tle_line2": "2 41828  98.9221 111.6773 0039269 184.1327 175.9547 14.51514369474212"
      },
      "geometry": {
        "type": "Point",
        "coordinates": [
          -63.389587907016335,
          25.978018361128147
        ]
      }
    },
    {
      "type": "Feature",
      "properties": {
        "norad_id": 41829,
        "name": "FENGYUN 1C DEB",
        "group": "fengyun-1c-debris",
        "lat": -78.83703794000358,
        "lon": 104.79370668587623,
        "alt_km": 789.9628763380588,
        "timestamp": "2025-12-10T07:43:55.069471+00:00",
        "meta_object_name": "FENGYUN 1C DEB",
        "meta_object_id": "1999-025EYG",
        "meta_epoch": "2025-12-09T15:16:14.445984",
        "meta_mean_motion": 14.2508781,
        "meta_eccentricity": 0.0056269,
        "meta_inclination": 98.7436,
        "meta_ra_of_asc_node": 52.8598,
        "meta_arg_of_pericenter": 227.8502,
        "meta_mean_anomaly": 131.789,
        "meta_ephemeris_type": 0,
        "meta_classification_type": "U",
        "meta_norad_cat_id": 41829,
        "meta_element_set_no": 999,
        "meta_rev_at_epoch": 47263,
        "meta_bstar": 0.002488,
        "meta_mean_motion_dot": 5.89e-05,
        "meta_mean_motion_ddot": 0,
        "tle_line1": "1 41829U 99025EYG 25343.63627831  .00005890  00000+0  24880-2 0  9997",
        "tle_line2": "2 41829  98.7436  52.8598 0056269 227.8502 131.7890 14.25087810472631"
      },
      "geometry": {
        "type": "Point",
        "coordinates": [
          104.79370668587623,
          -78.83703794000358
        ]
      }
    },
    {
      "type": "Feature",
      "properties": {
        "norad_id": 41830,
        "name": "FENGYUN 1C DEB",
        "group": "fengyun-1c-debris",
        "lat": 79.35153689026494,
        "lon": 1.279944501145797,
        "alt_km": 825.9189301901743,
        "timestamp": "2025-12-10T07:43:55.069480+00:00",
        "meta_object_name": "FENGYUN 1C DEB",
        "meta_object_id": "1999-025EYH",
        "meta_epoch": "2025-12-08T03:08:49.889472",
        "meta_mean_motion": 14.26390357,
        "meta_eccentricity": 0.0054382,
        "meta_inclination": 98.7528,
        "meta_ra_of_asc_node": 54.1148,
        "meta_arg_of_pericenter": 229.714,
        "meta_mean_anomaly": 129.928,
        "meta_ephemeris_type": 0,
        "meta_classification_type": "U",
        "meta_norad_cat_id": 41830,
        "meta_element_set_no": 999,
        "meta_rev_at_epoch": 47208,
        "meta_bstar": 0.002453427,
        "meta_mean_motion_dot": 5.951e-05,
        "meta_mean_motion_ddot": 0,
        "tle_line1": "1 41830U 99025EYH 25342.13113298  .00005951  00000+0  24534-2 0  9994",
        "tle_line2": "2 41830  98.7528  54.1148 0054382 229.7140 129.9280 14.26390357472089"
      },
      "geometry": {
        "type": "Point",
        "coordinates": [
          1.279944501145797,
          79.35153689026494
        ]
      }
    },
    {
      "type": "Feature",
      "properties": {
        "norad_id": 41831,
        "name": "FENGYUN 1C DEB",
        "group": "fengyun-1c-debris",
        "lat": -70.65959550054475,
        "lon": 77.16741910529872,
        "alt_km": 796.5577352611672,
        "timestamp": "2025-12-10T07:43:55.069490+00:00",
        "meta_object_name": "FENGYUN 1C DEB",
        "meta_object_id": "1999-025EYJ",
        "meta_epoch": "2025-12-09T15:12:56.851776",
        "meta_mean_motion": 14.24530798,
        "meta_eccentricity": 0.0056046,
        "meta_inclination": 98.7341,
        "meta_ra_of_asc_node": 50.5075,
        "meta_arg_of_pericenter": 230.064,
        "meta_mean_anomaly": 129.5607,
        "meta_ephemeris_type": 0,
        "meta_classification_type": "U",
        "meta_norad_cat_id": 41831,
        "meta_element_set_no": 999,
        "meta_rev_at_epoch": 47215,
        "meta_bstar": 0.0025636,
        "meta_mean_motion_dot": 6.004e-05,
        "meta_mean_motion_ddot": 0,
        "tle_line1": "1 41831U 99025EYJ 25343.63399134  .00006004  00000+0  25636-2 0  9990",
        "tle_line2": "2 41831  98.7341  50.5075 0056046 230.0640 129.5607 14.24530798472151"
      },
      "geometry": {
        "type": "Point",
        "coordinates": [
          77.16741910529872,
          -70.65959550054475
        ]
      }
    },
    {
      "type": "Feature",
      "properties": {
        "norad_id": 41832,
        "name": "FENGYUN 1C DEB",
        "group": "fengyun-1c-debris",
        "lat": -14.9913257261915,
        "lon": 50.718051222833864,
        "alt_km": 830.8184966890303,
        "timestamp": "2025-12-10T07:43:55.069500+00:00",
        "meta_object_name": "FENGYUN 1C DEB",
        "meta_object_id": "1999-025EYK",
        "meta_epoch": "2025-12-09T03:08:21.906240",
        "meta_mean_motion": 14.24193108,
        "meta_eccentricity": 0.0055344,
        "meta_inclination": 98.7283,
        "meta_ra_of_asc_node": 47.1773,
        "meta_arg_of_pericenter": 235.9593,
        "meta_mean_anomaly": 123.6324,
        "meta_ephemeris_type": 0,
        "meta_classification_type": "U",
        "meta_norad_cat_id": 41832,
        "meta_element_set_no": 999,
        "meta_rev_at_epoch": 47299,
        "meta_bstar": 0.0020260118,
        "meta_mean_motion_dot": 4.701e-05,
        "meta_mean_motion_ddot": 0,
        "tle_line1": "1 41832U 99025EYK 25343.13080910  .00004701  00000+0  20260-2 0  9995",
        "tle_line2": "2 41832  98.7283  47.1773 0055344 235.9593 123.6324 14.24193108472998"
      },
      "geometry": {
        "type": "Point",
        "coordinates": [
          50.718051222833864,
          -14.9913257261915
        ]
      }
    },
    {
      "type": "Feature",
      "properties": {
        "norad_id": 41833,
        "name": "FENGYUN 1C DEB",
        "group": "fengyun-1c-debris",
        "lat": 1.8771298639240785,
        "lon": -125.81873574551038,
        "alt_km": 784.4846881053036,
        "timestamp": "2025-12-10T07:43:55.069510+00:00",
        "meta_object_name": "FENGYUN 1C DEB",
        "meta_object_id": "1999-025EYL",
        "meta_epoch": "2025-12-09T03:56:49.650720",
        "meta_mean_motion": 14.25763274,
        "meta_eccentricity": 0.00541719,
        "meta_inclination": 98.7474,
        "meta_ra_of_asc_node": 52.7371,
        "meta_arg_of_pericenter": 233.3739,
        "meta_mean_anomaly": 126.2452,
        "meta_ephemeris_type": 0,
        "meta_classification_type": "U",
        "meta_norad_cat_id": 41833,
        "meta_element_set_no": 999,
        "meta_rev_at_epoch": 47313,
        "meta_bstar": 0.0021049234,
        "meta_mean_motion_dot": 5.036e-05,
        "meta_mean_motion_ddot": 0,
        "tle_line1": "1 41833U 99025EYL 25343.16446355  .00005036  00000+0  21049-2 0  9996",
        "tle_line2": "2 41833  98.7474  52.7371 0054171 233.3739 126.2452 14.25763274473134"
      },
      "geometry": {
        "type": "Point",
        "coordinates": [
          -125.81873574551038,
          1.8771298639240785
        ]
      }
    }
  ]
}